[{"OBJECT_NAME":"SDA_1665","OBJECT_ID":"2025-230B","EPOCH":"2026-03-09T22:47:20.541984","MEAN_MOTION":13.85178901,"ECCENTRICITY":0.00037609,"INCLINATION":81.3004,"RA_OF_ASC_NODE":303.6398,"ARG_OF_PERICENTER":117.7881,"MEAN_ANOMALY":242.3658,"EPHEMERIS_TYPE":0,"CLASSIFICATION_TYPE":"U","NORAD_CAT_ID":65975,"ELEMENT_SET_NO":999,"REV_AT_EPOCH":2008,"BSTAR":-0.026076654,"MEAN_MOTION_DOT":-0.00029429,"MEAN_MOTION_DDOT":0},{"OBJECT_NAME":"CZ-2D DEB","OBJECT_ID":"2008-056D","EPOCH":"2026-03-09T01:27:53.547552","MEAN_MOTION":14.0998999,"ECCENTRICITY":0.01635809,"INCLINATION":99.0104,"RA_OF_ASC_NODE":109.5673,"ARG_OF_PERICENTER":164.5191,"MEAN_ANOMALY":196.1069,"EPHEMERIS_TYPE":0,"CLASSIFICATION_TYPE":"U","NORAD_CAT_ID":35274,"ELEMENT_SET_NO":999,"REV_AT_EPOCH":88349,"BSTAR":0.00040335815,"MEAN_MOTION_DOT":7.61e-6,"MEAN_MOTION_DDOT":0}]
